QIANFAN-113             
1 68640U 26075E   26202.29007343  .00000122  00000+0  17055-3 0  9999
2 68640  88.9922 317.5160 0002046 108.4252 251.7122 13.51019587 14411
QIANFAN-114             
1 68641U 26075F   26202.29827202  .00000118  00000+0  16362-3 0  9999
2 68641  88.9917 317.5327 0002086 105.1233 255.0149 13.51018291 14404
QIANFAN-115             
1 68642U 26075G   26202.25294556  .00000119  00000+0  16557-3 0  9993
2 68642  88.9917 317.5446 0002245 106.8876 253.2521 13.51015038 14393
QIANFAN-116             
1 68643U 26075H   26202.24060375  .00000132  00000+0  18585-3 0  9991
2 68643  88.9910 317.5035 0002108 114.9253 245.2117 13.51015604 14401
QIANFAN-117             
1 68644U 26075J   26202.22825729  .00000111  00000+0  15370-3 0  9998
2 68644  88.9915 317.5219 0002237 110.7383 249.4009 13.51013449 14403
QIANFAN-118             
1 68645U 26075K   26202.26117726  .00000115  00000+0  15871-3 0  9994
2 68645  88.9920 317.5282 0001982 103.6764 256.4608 13.51015329 14402
QIANFAN-119             
1 68646U 26075L   26202.31057168  .00000128  00000+0  17968-3 0  9997
2 68646  88.9920 317.5188 0002362 111.5081 248.6322 13.51021649 14410
QIANFAN-120             
1 68647U 26075M   26202.24896378  .00000126  00000+0  17681-3 0  9994
2 68647  88.9921 317.5107 0002505 110.8423 249.2997 13.51022167 14415
QIANFAN-121             
1 68648U 26075N   26202.27355885  .00000134  00000+0  18846-3 0  9994
2 68648  88.9919 317.5124 0002061 103.3989 256.7392 13.51014199 14411
QIANFAN-122             
1 68649U 26075P   26202.26543368  .00000123  00000+0  17159-3 0  9993
2 68649  88.9918 317.5110 0002283 112.4444 247.6950 13.51017822 14403
QIANFAN-123             
1 68650U 26075Q   26202.23256534  .00000116  00000+0  16070-3 0  9991
2 68650  88.9915 317.5032 0002444 116.4381 243.7022 13.51016180 14388
QIANFAN-124             
1 68651U 26075R   26202.25721210  .00000113  00000+0  15570-3 0  9993
2 68651  88.9917 317.5106 0002314 114.2254 245.9140 13.51017430 14412
QIANFAN-125             
1 68652U 26075S   26202.19538776  .00000126  00000+0  17580-3 0  9997
2 68652  88.9917 317.5189 0002039 104.0177 256.1201 13.51014347 14404
QIANFAN-126             
1 68653U 26075T   26202.20367194  .00000136  00000+0  19182-3 0  9995
2 68653  88.9921 317.4851 0002452 115.8469 244.2935 13.51019479 14423
QIANFAN-127             
1 69073U 26104A   26202.28796909  .00000037  00000+0  35650-4 0  9992
2 69073  88.9921 337.9821 0009280 346.9117  13.1795 13.55598845  9768
QIANFAN-128             
1 69074U 26104B   26201.99494659  .00000036  00000+0  37534-4 0  9999
2 69074  88.9886 338.0530 0002048  70.3208 289.8164 13.50991432  9702
