{"fetched_at":"2026-07-21T17:53:08.726Z","source":"https://celestrak.org/NORAD/elements/gp.php?GROUP=qianfan&FORMAT=JSON","constellation":"qianfan","records":[{"OBJECT_NAME":"QIANFAN-113","OBJECT_ID":"2026-075E","EPOCH":"2026-07-21T06:57:42.344352","CLASSIFICATION_TYPE":"U","MEAN_MOTION":13.51019587,"ECCENTRICITY":0.00020464,"INCLINATION":88.9922,"RA_OF_ASC_NODE":317.516,"ARG_OF_PERICENTER":108.4252,"MEAN_ANOMALY":251.7122,"EPHEMERIS_TYPE":0,"NORAD_CAT_ID":68640,"ELEMENT_SET_NO":999,"REV_AT_EPOCH":1441,"BSTAR":0.00017055218,"MEAN_MOTION_DOT":0.00000122,"MEAN_MOTION_DDOT":0},{"OBJECT_NAME":"QIANFAN-114","OBJECT_ID":"2026-075F","EPOCH":"2026-07-21T07:09:30.702528","CLASSIFICATION_TYPE":"U","MEAN_MOTION":13.51018291,"ECCENTRICITY":0.00020866,"INCLINATION":88.9917,"RA_OF_ASC_NODE":317.5327,"ARG_OF_PERICENTER":105.1233,"MEAN_ANOMALY":255.0149,"EPHEMERIS_TYPE":0,"NORAD_CAT_ID":68641,"ELEMENT_SET_NO":999,"REV_AT_EPOCH":1440,"BSTAR":0.00016362041,"MEAN_MOTION_DOT":0.00000118,"MEAN_MOTION_DDOT":0},{"OBJECT_NAME":"QIANFAN-115","OBJECT_ID":"2026-075G","EPOCH":"2026-07-21T06:04:14.496384","CLASSIFICATION_TYPE":"U","MEAN_MOTION":13.51015038,"ECCENTRICITY":0.00022459,"INCLINATION":88.9917,"RA_OF_ASC_NODE":317.5446,"ARG_OF_PERICENTER":106.8876,"MEAN_ANOMALY":253.2521,"EPHEMERIS_TYPE":0,"NORAD_CAT_ID":68642,"ELEMENT_SET_NO":999,"REV_AT_EPOCH":1439,"BSTAR":0.00016557115,"MEAN_MOTION_DOT":0.00000119,"MEAN_MOTION_DDOT":0},{"OBJECT_NAME":"QIANFAN-116","OBJECT_ID":"2026-075H","EPOCH":"2026-07-21T05:46:28.164000","CLASSIFICATION_TYPE":"U","MEAN_MOTION":13.51015604,"ECCENTRICITY":0.00021082,"INCLINATION":88.991,"RA_OF_ASC_NODE":317.5035,"ARG_OF_PERICENTER":114.9253,"MEAN_ANOMALY":245.2117,"EPHEMERIS_TYPE":0,"NORAD_CAT_ID":68643,"ELEMENT_SET_NO":999,"REV_AT_EPOCH":1440,"BSTAR":0.00018584561,"MEAN_MOTION_DOT":0.00000132,"MEAN_MOTION_DDOT":0},{"OBJECT_NAME":"QIANFAN-117","OBJECT_ID":"2026-075J","EPOCH":"2026-07-21T05:28:41.429856","CLASSIFICATION_TYPE":"U","MEAN_MOTION":13.51013449,"ECCENTRICITY":0.00022378,"INCLINATION":88.9915,"RA_OF_ASC_NODE":317.5219,"ARG_OF_PERICENTER":110.7383,"MEAN_ANOMALY":249.4009,"EPHEMERIS_TYPE":0,"NORAD_CAT_ID":68644,"ELEMENT_SET_NO":999,"REV_AT_EPOCH":1440,"BSTAR":0.00015369677,"MEAN_MOTION_DOT":0.00000111,"MEAN_MOTION_DDOT":0},{"OBJECT_NAME":"QIANFAN-118","OBJECT_ID":"2026-075K","EPOCH":"2026-07-21T06:16:05.715264","CLASSIFICATION_TYPE":"U","MEAN_MOTION":13.51015329,"ECCENTRICITY":0.00019826,"INCLINATION":88.992,"RA_OF_ASC_NODE":317.5282,"ARG_OF_PERICENTER":103.6764,"MEAN_ANOMALY":256.4608,"EPHEMERIS_TYPE":0,"NORAD_CAT_ID":68645,"ELEMENT_SET_NO":999,"REV_AT_EPOCH":1440,"BSTAR":0.00015870787,"MEAN_MOTION_DOT":0.00000115,"MEAN_MOTION_DDOT":0},{"OBJECT_NAME":"QIANFAN-119","OBJECT_ID":"2026-075L","EPOCH":"2026-07-21T07:27:13.393152","CLASSIFICATION_TYPE":"U","MEAN_MOTION":13.51021649,"ECCENTRICITY":0.00023622,"INCLINATION":88.992,"RA_OF_ASC_NODE":317.5188,"ARG_OF_PERICENTER":111.5081,"MEAN_ANOMALY":248.6322,"EPHEMERIS_TYPE":0,"NORAD_CAT_ID":68646,"ELEMENT_SET_NO":999,"REV_AT_EPOCH":1441,"BSTAR":0.00017968481,"MEAN_MOTION_DOT":0.00000128,"MEAN_MOTION_DDOT":0},{"OBJECT_NAME":"QIANFAN-120","OBJECT_ID":"2026-075M","EPOCH":"2026-07-21T05:58:30.470592","CLASSIFICATION_TYPE":"U","MEAN_MOTION":13.51022167,"ECCENTRICITY":0.00025053,"INCLINATION":88.9921,"RA_OF_ASC_NODE":317.5107,"ARG_OF_PERICENTER":110.8423,"MEAN_ANOMALY":249.2997,"EPHEMERIS_TYPE":0,"NORAD_CAT_ID":68647,"ELEMENT_SET_NO":999,"REV_AT_EPOCH":1441,"BSTAR":0.0001768147,"MEAN_MOTION_DOT":0.00000126,"MEAN_MOTION_DDOT":0},{"OBJECT_NAME":"QIANFAN-121","OBJECT_ID":"2026-075N","EPOCH":"2026-07-21T06:33:55.484640","CLASSIFICATION_TYPE":"U","MEAN_MOTION":13.51014199,"ECCENTRICITY":0.00020616,"INCLINATION":88.9919,"RA_OF_ASC_NODE":317.5124,"ARG_OF_PERICENTER":103.3989,"MEAN_ANOMALY":256.7392,"EPHEMERIS_TYPE":0,"NORAD_CAT_ID":68648,"ELEMENT_SET_NO":999,"REV_AT_EPOCH":1441,"BSTAR":0.00018845823,"MEAN_MOTION_DOT":0.00000134,"MEAN_MOTION_DDOT":0},{"OBJECT_NAME":"QIANFAN-122","OBJECT_ID":"2026-075P","EPOCH":"2026-07-21T06:22:13.469952","CLASSIFICATION_TYPE":"U","MEAN_MOTION":13.51017822,"ECCENTRICITY":0.00022832,"INCLINATION":88.9918,"RA_OF_ASC_NODE":317.511,"ARG_OF_PERICENTER":112.4444,"MEAN_ANOMALY":247.695,"EPHEMERIS_TYPE":0,"NORAD_CAT_ID":68649,"ELEMENT_SET_NO":999,"REV_AT_EPOCH":1440,"BSTAR":0.00017158767,"MEAN_MOTION_DOT":0.00000123,"MEAN_MOTION_DDOT":0},{"OBJECT_NAME":"QIANFAN-123","OBJECT_ID":"2026-075Q","EPOCH":"2026-07-21T05:34:53.645376","CLASSIFICATION_TYPE":"U","MEAN_MOTION":13.5101618,"ECCENTRICITY":0.00024443,"INCLINATION":88.9915,"RA_OF_ASC_NODE":317.5032,"ARG_OF_PERICENTER":116.4381,"MEAN_ANOMALY":243.7022,"EPHEMERIS_TYPE":0,"NORAD_CAT_ID":68650,"ELEMENT_SET_NO":999,"REV_AT_EPOCH":1438,"BSTAR":0.00016069745,"MEAN_MOTION_DOT":0.00000116,"MEAN_MOTION_DDOT":0},{"OBJECT_NAME":"QIANFAN-124","OBJECT_ID":"2026-075R","EPOCH":"2026-07-21T06:10:23.125440","CLASSIFICATION_TYPE":"U","MEAN_MOTION":13.5101743,"ECCENTRICITY":0.00023141,"INCLINATION":88.9917,"RA_OF_ASC_NODE":317.5106,"ARG_OF_PERICENTER":114.2254,"MEAN_ANOMALY":245.914,"EPHEMERIS_TYPE":0,"NORAD_CAT_ID":68651,"ELEMENT_SET_NO":999,"REV_AT_EPOCH":1441,"BSTAR":0.00015569888,"MEAN_MOTION_DOT":0.00000113,"MEAN_MOTION_DDOT":0},{"OBJECT_NAME":"QIANFAN-125","OBJECT_ID":"2026-075S","EPOCH":"2026-07-21T04:41:21.502464","CLASSIFICATION_TYPE":"U","MEAN_MOTION":13.51014347,"ECCENTRICITY":0.00020399,"INCLINATION":88.9917,"RA_OF_ASC_NODE":317.5189,"ARG_OF_PERICENTER":104.0177,"MEAN_ANOMALY":256.1201,"EPHEMERIS_TYPE":0,"NORAD_CAT_ID":68652,"ELEMENT_SET_NO":999,"REV_AT_EPOCH":1440,"BSTAR":0.00017579552,"MEAN_MOTION_DOT":0.00000126,"MEAN_MOTION_DDOT":0},{"OBJECT_NAME":"QIANFAN-126","OBJECT_ID":"2026-075T","EPOCH":"2026-07-21T04:53:17.255616","CLASSIFICATION_TYPE":"U","MEAN_MOTION":13.51019479,"ECCENTRICITY":0.00024529,"INCLINATION":88.9921,"RA_OF_ASC_NODE":317.4851,"ARG_OF_PERICENTER":115.8469,"MEAN_ANOMALY":244.2935,"EPHEMERIS_TYPE":0,"NORAD_CAT_ID":68653,"ELEMENT_SET_NO":999,"REV_AT_EPOCH":1442,"BSTAR":0.00019181809,"MEAN_MOTION_DOT":0.00000136,"MEAN_MOTION_DDOT":0},{"OBJECT_NAME":"QIANFAN-127","OBJECT_ID":"2026-104A","EPOCH":"2026-07-21T06:54:40.529376","CLASSIFICATION_TYPE":"U","MEAN_MOTION":13.55598845,"ECCENTRICITY":0.00092806,"INCLINATION":88.9921,"RA_OF_ASC_NODE":337.9821,"ARG_OF_PERICENTER":346.9117,"MEAN_ANOMALY":13.1795,"EPHEMERIS_TYPE":0,"NORAD_CAT_ID":69073,"ELEMENT_SET_NO":999,"REV_AT_EPOCH":976,"BSTAR":0.000035649574,"MEAN_MOTION_DOT":3.7e-7,"MEAN_MOTION_DDOT":0},{"OBJECT_NAME":"QIANFAN-128","OBJECT_ID":"2026-104B","EPOCH":"2026-07-20T23:52:43.385376","CLASSIFICATION_TYPE":"U","MEAN_MOTION":13.50991432,"ECCENTRICITY":0.00020489,"INCLINATION":88.9886,"RA_OF_ASC_NODE":338.053,"ARG_OF_PERICENTER":70.3208,"MEAN_ANOMALY":289.8164,"EPHEMERIS_TYPE":0,"NORAD_CAT_ID":69074,"ELEMENT_SET_NO":999,"REV_AT_EPOCH":970,"BSTAR":0.000037534334,"MEAN_MOTION_DOT":3.6e-7,"MEAN_MOTION_DDOT":0}]}
